{
  "norad_id": 68500,
  "name": "TRANSPORTER-16 OBJECT CN",
  "history": [
    {
      "epoch": "2026-04-15T17:41:11.712768Z",
      "apogee_km": 594.3425611735174,
      "perigee_km": 592.6707610235862,
      "latitude_deg": 2.3250101935235544e-05,
      "longitude_deg": -44.221424313981366,
      "height_km": 597.3765287600455,
      "semi_major_axis_km": 6971.643661098551,
      "eccentricity": 0.0001199,
      "inclination_deg": 97.7574,
      "raan_deg": 64.9721,
      "arg_perigee_deg": 172.4524,
      "mean_anomaly_deg": 187.6713,
      "mean_motion_rev_day": 14.91420095
    }
  ]
}