TRANSPORTER-16 OBJECT CN
1 68500U 26067CN  26105.73694113  .00001326  00000+0  13824-3 0  9990
2 68500  97.7574  64.9721 0001198 172.4524 187.6713 14.91420095  2418
